GSAT0225 (GALILEO 29)   
1 59598U 24079A   26189.24752330 -.00000009  00000+0  00000+0 0  9998
2 59598  55.1311 100.4922 0000777 311.6524 239.2330  1.70473736 13672
GSAT0227 (GALILEO 30)   
1 59600U 24079C   26187.94680255 -.00000003  00000+0  00000+0 0  9997
2 59600  55.1260 100.5264 0002634  63.1115 296.9336  1.70473885 13703
GSAT0232 (GALILEO 32)   
1 61182U 24167A   26191.13649870  .00000090  00000+0  00000+0 0  9992
2 61182  55.1805 220.6842 0006470 230.0654 143.1873  1.70473966 11276
GSAT0226 (GALILEO 31)   
1 61183U 24167B   26189.78713793  .00000087  00000+0  00000+0 0  9993
2 61183  55.1792 220.7283 0003163 233.9566 122.4953  1.70473959 11217
BEIDOU-3 M25            
1 61186U 24168B   26190.47823551 -.00000067  00000+0  00000+0 0  9998
2 61186  54.4524 301.4683 0003287 292.5284  70.4431  1.86229901 12207
BEIDOU-3 M27            
1 61187U 24168C   26190.26802481 -.00000067  00000+0  00000+0 0  9995
2 61187  54.4479 301.4584 0001007  49.0108 308.0590  1.86229980  9664
NAVSTAR 83 (USA 440)    
1 62339U 24242A   26191.27208483 -.00000082  00000+0  00000+0 0  9999
2 62339  54.8387 333.2464 0017772   3.9598 354.1894  2.00571820 11712
QZS-6 (MICHIBIKI-6)     
1 62876U 25023A   26191.29955829 -.00000222  00000+0  00000+0 0  9994
2 62876   0.0230 313.9351 0001819 176.0231 356.5979  1.00268414  5184
COSMOS 2584 [GLONASS-K2]
1 63130U 25042A   26185.50280755 -.00000010  00000+0  00000+0 0  9990
2 63130  65.0947  72.2135 0006059 222.1818 137.8396  2.13103855 10411
NAVSTAR 84 (USA 545)    
1 64202U 25116A   26191.01629376 -.00000054  00000+0  00000+0 0  9990
2 64202  55.2518  30.2129 0008288 339.6423  16.9014  2.00574022  8321
COSMOS 2596 [GLONASS-K1]
1 65590U 25206B   26190.50906699 -.00000059  00000+0  00000+0 0  9995
2 65590  64.6203 314.2090 0011163 308.0791  48.6851  2.13100694  6382
GSAT0233 (GALILEO 33)   
1 67160U 25302A   26189.73406278 -.00000012  00000+0  00000+0 0  9997
2 67160  54.3473 101.5178 0000858 172.7787 247.6086  1.70473891  3490
GSAT0234 (GALILEO 34)   
1 67162U 25302C   26189.63590403 -.00000012  00000+0  00000+0 0  9992
2 67162  54.3489 101.5195 0002191 318.8515 221.3959  1.70473878  3541
NAVSTAR 85 (USA 581)    
1 67588U 26017A   26189.63546814 -.00000030  00000+0  00000+0 0  9995
2 67588  55.1016  87.8945 0021643 259.6539 100.1366  2.00570619432040
NAVSTAR 86 (USA 585)    
1 68791U 26087A   26190.84999216  .00000115  00000+0  00000+0 0  9995
2 68791  54.9614 206.8916 0020527 106.5104 255.9199  2.00572099  1293
